NUVIEW BRAVO            
1 62457U 24252D   26162.38249491 -.00000198  00000+0  00000+0 0  9993
2 62457   0.0693 147.5419 0001789 341.2416 185.5320  1.00270691  3734
THURAYA-4               
1 62483U 25001A   26162.52197389  .00000156  00000+0  00000+0 0  9992
2 62483   0.0266  65.1144 0000475 136.9597 290.0202  1.00272941  4124
SHIJIAN-25 (SJ-25)      
1 62485U 25002A   26162.72439257 -.00000336  00000+0  00000+0 0  9991
2 62485   5.0995  61.1945 0052219 173.1396  53.8496  1.00270286  5309
TJS-14                  
1 62804U 25017A   26162.84069631  .00000132  00000+0  00000+0 0  9993
2 62804   0.7954 295.2147 0000880 287.1426 358.8357  1.00272159  5217
SPAINSAT NG I           
1 62852U 25021A   26162.55761941  .00000168  00000+0  00000+0 0  9991
2 62852   0.0167 341.6800 0000133 272.3489 235.6199  1.00270243  3932
QZS-6 (MICHIBIKI-6)     
1 62876U 25023A   26162.72167970 -.00000217  00000+0  00000+0 0  9996
2 62876   0.0398  62.6171 0001798  25.7107 162.0601  1.00272357  4895
ZHONGXING-10R           
1 63075U 25036A   26162.88949954 -.00000335  00000+0  00000+0 0  9990
2 63075   0.0365 249.1507 0003339 257.4673 184.3263  1.00267394  4909
TJS-15                  
1 63157U 25045A   26162.71681462 -.00000249  00000+0  00000+0 0  9994
2 63157   0.2807  85.4321 0004726 297.3853 229.6705  1.00273419  4709
TIANLIAN 2-04           
1 63361U 25062A   26162.85293700 -.00000116  00000+0  00000+0 0  9992
2 63361   4.3892 274.5183 0031649  10.4201   2.3585  1.00270969  4559
TJS-16                  
1 63397U 25064A   26162.68216632 -.00000089  00000+0  00000+0 0  9992
2 63397   1.0832  81.4832 0003432 289.9744 294.7547  1.00271541  4334
TJS-17                  
1 63524U 25073A   26162.68267883 -.00000053  00000+0  00000+0 0  9999
2 63524   1.0490  82.7367 0002169 297.1428 290.4360  1.00271917  4231
TIANLIAN 2-05           
1 63662U 25084A   26162.82829072  .00000142  00000+0  00000+0 0  9992
2 63662   4.4657 279.8971 0003230 145.7699 153.0713  1.00269799  4325
TJS-19                  
1 63924U 25097A   26162.71712163 -.00000261  00000+0  00000+0 0  9990
2 63924   3.2963 317.3428 0002229 239.3370 102.7799  1.00267630  4081
CHINASAT 3B             
1 64062U 25106A   26162.63169925 -.00000028  00000+0  00000+0 0  9999
2 64062   0.0426 136.3779 0002824 345.4441 172.8875  1.00270246  4003
SXM-10                  
1 64290U 25122A   26162.67124683  .00000000  00000+0  00000+0 0  9995
2 64290   0.0200  24.9511 0001666 340.8612  19.6750  1.00272264  3623
COSMOS 2589             
1 64467U 25131A   26162.71907792 -.00000274  00000+0  00000+0 0  9990
2 64467   0.0534  78.8164 0001201  80.2144  97.8694  1.00269977  3500
CHINASAT 9C             
1 64470U 25132A   26162.89400073 -.00000231  00000+0  00000+0 0  9997
2 64470   0.0150 273.9884 0002626 166.0367 234.2644  1.00270722  4094
MTG-S1                  
1 64723U 25143A   26162.69378027 -.00000015  00000+0  00000+0 0  9991
2 64723   0.6083 337.6533 0000976  18.2121 150.4552  1.00271591  3368
DROR 1                  
1 64784U 25148A   26162.69369359 -.00000018  00000+0  00000+0 0  9994
2 64784   0.0191  38.0955 0002660 351.0066 116.6568  1.00271585  3248
SHIYAN-29               
1 65486U 25196A   26160.07536391 -.00000259  00000+0  00000+0 0  9996
2 65486  28.8121  18.6391 0010972 171.7452 188.2752  1.00256520  2799
NUSANTARA LIMA (NUSANT*)
1 65588U 25205A   26162.07522954 -.00000340  00000+0  00000+0 0  9993
2 65588   0.0472 141.8446 0000088  10.0617 247.4654  1.00270562  2654
TJS-20                  
1 66142U 25238A   26162.51072499  .00000040  00000+0  00000+0 0  9995
2 66142   5.4831 299.5741 0004595 159.9131  46.6303  1.00273206  2275
CMS-03 (GSAT-7R)        
1 66311U 25249B   26162.70915645 -.00000060  00000+0  00000+0 0  9998
2 66311   0.0143 272.9832 0001617 164.2985 152.0595  1.00270953  2297
VIASAT-3 F2             
1 66454U 25261A   26162.60756728 -.00000217  00000+0  00000+0 0  9998
2 66454   0.0357 155.8526 0000084 135.9089 107.9298  1.00272119  2732
SHIJIAN-28 (SJ-28)      
1 66549U 25277A   26162.71756315 -.00000341  00000+0  00000+0 0  9992
2 66549   4.5533 272.2230 0000696 350.5792  12.4007  1.00265747  2101
TJS-22                  
1 66990U 25290A   26161.89242196  .00000011  00000+0  00000+0 0  9995
2 66990   1.5435 286.4977 0001924 331.6684  28.8040  1.00272584  1967
TJS-23                  
1 67226U 25306A   26162.61709315  .00000033  00000+0  00000+0 0  9992
2 67226   5.6002 297.5193 0005198 167.6696 192.4305  1.00274138  1830
FENGYUN 4C              
1 67246U 25312A   26162.86342372 -.00000307  00000+0  00000+0 0  9999
2 67246   0.0456 145.9451 0000533  48.9546 149.1373  1.00270480  1728
SHIJIAN-29A (SJ-29A)    
1 67302U 25315A   26162.72165455 -.00000052  00000+0  00000+0 0  9992
2 67302   3.3830  95.2455 0003155  24.3114 113.5235  1.00269576  1564
SHIJIAN-29B (SJ-29B)    
1 67403U 25315C   26162.72165416 -.00000052  00000+0  00000+0 0  9991
2 67403   3.3819  95.2376 0003654  30.4303 107.4565  1.00269529  1631
ELEKTRO-L 5             
1 67756U 26028A   26162.06824256 -.00000080  00000+0  00000+0 0  9996
2 67756   0.2626 309.5465 0001682 180.9274 229.5532  1.00271199  1198
JAM-E JAM 1             
1 67757U 26028B   26162.70120475  .00000172  00000+0  00000+0 0  9991
2 67757   0.2723 300.6029 0001103 299.5856 306.1933  1.00272900  1060
