OBJECT_NAME,OBJECT_ID,EPOCH,MEAN_MOTION,ECCENTRICITY,INCLINATION,RA_OF_ASC_NODE,ARG_OF_PERICENTER,MEAN_ANOMALY,EPHEMERIS_TYPE,CLASSIFICATION_TYPE,NORAD_CAT_ID,ELEMENT_SET_NO,REV_AT_EPOCH,BSTAR,MEAN_MOTION_DOT,MEAN_MOTION_DDOT
NUVIEW BRAVO,2024-252D,2026-06-11T09:10:47.560224,1.00270691,.0001789,0.0693,147.5419,341.2416,185.5320,0,U,62457,999,373,0,-.198E-5,0
THURAYA-4,2025-001A,2026-06-11T12:31:38.544096,1.00272941,.0000475,0.0266,65.1144,136.9597,290.0202,0,U,62483,999,412,0,.156E-5,0
SHIJIAN-25 (SJ-25),2025-002A,2026-06-11T17:23:07.518048,1.00270286,.0052219,5.0995,61.1945,173.1396,53.8496,0,U,62485,999,530,0,-.336E-5,0
TJS-14,2025-017A,2026-06-11T20:10:36.161184,1.00272159,.000088,0.7954,295.2147,287.1426,358.8357,0,U,62804,999,521,0,.132E-5,0
SPAINSAT NG I,2025-021A,2026-06-11T13:22:58.317024,1.00270243,.0000133,0.0167,341.6800,272.3489,235.6199,0,U,62852,999,393,0,.168E-5,0
QZS-6 (MICHIBIKI-6),2025-023A,2026-06-11T17:19:13.126080,1.00272357,.0001798,0.0398,62.6171,25.7107,162.0601,0,U,62876,999,489,0,-.217E-5,0
ZHONGXING-10R,2025-036A,2026-06-11T21:20:52.760256,1.00267394,.0003339,0.0365,249.1507,257.4673,184.3263,0,U,63075,999,490,0,-.335E-5,0
TJS-15,2025-045A,2026-06-11T17:12:12.783168,1.00273419,.0004726,0.2807,85.4321,297.3853,229.6705,0,U,63157,999,470,0,-.249E-5,0
TIANLIAN 2-04,2025-062A,2026-06-11T20:28:13.756800,1.00270969,.0031649,4.3892,274.5183,10.4201,2.3585,0,U,63361,999,455,0,-.116E-5,0
TJS-16,2025-064A,2026-06-11T16:22:19.170048,1.00271541,.0003432,1.0832,81.4832,289.9744,294.7547,0,U,63397,999,433,0,-.89E-6,0
TJS-17,2025-073A,2026-06-11T16:23:03.450912,1.00271917,.0002169,1.0490,82.7367,297.1428,290.4360,0,U,63524,999,423,0,-.53E-6,0
TIANLIAN 2-05,2025-084A,2026-06-11T19:52:44.318208,1.00269799,.000323,4.4657,279.8971,145.7699,153.0713,0,U,63662,999,432,0,.142E-5,0
TJS-19,2025-097A,2026-06-11T17:12:39.308832,1.00267630,.0002229,3.2963,317.3428,239.3370,102.7799,0,U,63924,999,408,0,-.261E-5,0
CHINASAT 3B,2025-106A,2026-06-11T15:09:38.815200,1.00270246,.0002824,0.0426,136.3779,345.4441,172.8875,0,U,64062,999,400,0,-.28E-6,0
SXM-10,2025-122A,2026-06-11T16:06:35.726112,1.00272264,.0001666,0.0200,24.9511,340.8612,19.6750,0,U,64290,999,362,0,0,0
COSMOS 2589,2025-131A,2026-06-11T17:15:28.332288,1.00269977,.0001201,0.0534,78.8164,80.2144,97.8694,0,U,64467,999,350,0,-.274E-5,0
CHINASAT 9C,2025-132A,2026-06-11T21:27:21.663072,1.00270722,.0002626,0.0150,273.9884,166.0367,234.2644,0,U,64470,999,409,0,-.231E-5,0
MTG-S1,2025-143A,2026-06-11T16:39:02.615328,1.00271591,.0000976,0.6083,337.6533,18.2121,150.4552,0,U,64723,999,336,0,-.15E-6,0
DROR 1,2025-148A,2026-06-11T16:38:55.126176,1.00271585,.000266,0.0191,38.0955,351.0066,116.6568,0,U,64784,999,324,0,-.18E-6,0
SHIYAN-29,2025-196A,2026-06-09T01:48:31.441824,1.00256520,.00109724,28.8121,18.6391,171.7452,188.2752,0,U,65486,999,279,0,-.259E-5,0
NUSANTARA LIMA (NUSANTARA 5),2025-205A,2026-06-11T01:48:19.832256,1.00270562,.0000088,0.0472,141.8446,10.0617,247.4654,0,U,65588,999,265,0,-.34E-5,0
TJS-20,2025-238A,2026-06-11T12:15:26.639136,1.00273206,.0004595,5.4831,299.5741,159.9131,46.6303,0,U,66142,999,227,0,.4E-6,0
CMS-03 (GSAT-7R),2025-249B,2026-06-11T17:01:11.117280,1.00270953,.0001617,0.0143,272.9832,164.2985,152.0595,0,U,66311,999,229,0,-.6E-6,0
VIASAT-3 F2,2025-261A,2026-06-11T14:34:53.812992,1.00272119,.0000084,0.0357,155.8526,135.9089,107.9298,0,U,66454,999,273,0,-.217E-5,0
SHIJIAN-28 (SJ-28),2025-277A,2026-06-11T17:13:17.456160,1.00265747,.0000696,4.5533,272.2230,350.5792,12.4007,0,U,66549,999,210,0,-.341E-5,0
TJS-22,2025-290A,2026-06-10T21:25:05.257344,1.00272584,.0001924,1.5435,286.4977,331.6684,28.8040,0,U,66990,999,196,0,.11E-6,0
TJS-23,2025-306A,2026-06-11T14:48:36.848160,1.00274138,.0005198,5.6002,297.5193,167.6696,192.4305,0,U,67226,999,183,0,.33E-6,0
FENGYUN 4C,2025-312A,2026-06-11T20:43:19.809408,1.00270480,.0000533,0.0456,145.9451,48.9546,149.1373,0,U,67246,999,172,0,-.307E-5,0
SHIJIAN-29A (SJ-29A),2025-315A,2026-06-11T17:19:10.953120,1.00269576,.0003155,3.3830,95.2455,24.3114,113.5235,0,U,67302,999,156,0,-.52E-6,0
SHIJIAN-29B (SJ-29B),2025-315C,2026-06-11T17:19:10.919424,1.00269529,.0003654,3.3819,95.2376,30.4303,107.4565,0,U,67403,999,163,0,-.52E-6,0
ELEKTRO-L 5,2026-028A,2026-06-11T01:38:16.157184,1.00271199,.0001682,0.2626,309.5465,180.9274,229.5532,0,U,67756,999,119,0,-.8E-6,0
JAM-E JAM 1,2026-028B,2026-06-11T16:49:44.090400,1.00272900,.0001103,0.2723,300.6029,299.5856,306.1933,0,U,67757,999,106,0,.172E-5,0
